{
  "links" : {
    "next" : "https://api.nasa.gov/neo/rest/v1/feed?start_date=2013-03-23&end_date=2013-03-23&detailed=true&api_key=t0TVs3DtDT2H8Oy2Zy8m2eVrNsAVKAexjcZXUckd",
    "prev" : "https://api.nasa.gov/neo/rest/v1/feed?start_date=2013-03-21&end_date=2013-03-21&detailed=true&api_key=t0TVs3DtDT2H8Oy2Zy8m2eVrNsAVKAexjcZXUckd",
    "self" : "https://api.nasa.gov/neo/rest/v1/feed?start_date=2013-03-22&end_date=2013-03-22&detailed=true&api_key=t0TVs3DtDT2H8Oy2Zy8m2eVrNsAVKAexjcZXUckd"
  },
  "element_count" : 9,
  "near_earth_objects" : {
    "2013-03-22" : [ {
      "links" : {
        "self" : "https://api.nasa.gov/neo/rest/v1/neo/3601574?api_key=t0TVs3DtDT2H8Oy2Zy8m2eVrNsAVKAexjcZXUckd"
      },
      "neo_reference_id" : "3601574",
      "name" : "(2012 FK15)",
      "nasa_jpl_url" : "http://ssd.jpl.nasa.gov/sbdb.cgi?sstr=3601574",
      "absolute_magnitude_h" : 26.5,
      "estimated_diameter" : {
        "kilometers" : {
          "estimated_diameter_min" : 0.0133215567,
          "estimated_diameter_max" : 0.0297879063
        },
        "meters" : {
          "estimated_diameter_min" : 13.3215566698,
          "estimated_diameter_max" : 29.7879062798
        },
        "miles" : {
          "estimated_diameter_min" : 0.008277629,
          "estimated_diameter_max" : 0.0185093411
        },
        "feet" : {
          "estimated_diameter_min" : 43.7058959846,
          "estimated_diameter_max" : 97.7293544391
        }
      },
      "is_potentially_hazardous_asteroid" : false,
      "close_approach_data" : [ {
        "close_approach_date" : "2013-03-22",
        "epoch_date_close_approach" : 1363935600000,
        "relative_velocity" : {
          "kilometers_per_second" : "12.8883245559",
          "kilometers_per_hour" : "46397.9684011432",
          "miles_per_hour" : "28829.8931990325"
        },
        "miss_distance" : {
          "astronomical" : "0.0862074265",
          "lunar" : "33.5346908569",
          "kilometers" : "12896448",
          "miles" : "8013481"
        },
        "orbiting_body" : "Earth"
      } ],
      "orbital_data" : {
        "orbit_id" : "4",
        "orbit_determination_date" : "2017-04-06 08:50:25",
        "orbit_uncertainty" : "8",
        "minimum_orbit_intersection" : ".0487075",
        "jupiter_tisserand_invariant" : "6.043",
        "epoch_osculation" : "2456009.5",
        "eccentricity" : ".06650745782869934",
        "semi_major_axis" : ".9911526984909586",
        "inclination" : "24.34128958115243",
        "ascending_node_longitude" : ".5942981672984921",
        "orbital_period" : "360.4203287229523",
        "perihelion_distance" : ".9252336521942696",
        "perihelion_argument" : "327.3579234806223",
        "aphelion_distance" : "1.057071744787647",
        "perihelion_time" : "2456150.985493658813",
        "mean_anomaly" : "218.6795092894852",
        "mean_motion" : ".9988337818667398",
        "equinox" : "J2000"
      }
    }, {
      "links" : {
        "self" : "https://api.nasa.gov/neo/rest/v1/neo/3630815?api_key=t0TVs3DtDT2H8Oy2Zy8m2eVrNsAVKAexjcZXUckd"
      },
      "neo_reference_id" : "3630815",
      "name" : "(2013 ES11)",
      "nasa_jpl_url" : "http://ssd.jpl.nasa.gov/sbdb.cgi?sstr=3630815",
      "absolute_magnitude_h" : 23.7,
      "estimated_diameter" : {
        "kilometers" : {
          "estimated_diameter_min" : 0.0483676488,
          "estimated_diameter_max" : 0.1081533507
        },
        "meters" : {
          "estimated_diameter_min" : 48.3676488219,
          "estimated_diameter_max" : 108.1533506775
        },
        "miles" : {
          "estimated_diameter_min" : 0.0300542543,
          "estimated_diameter_max" : 0.0672033557
        },
        "feet" : {
          "estimated_diameter_min" : 158.6865169607,
          "estimated_diameter_max" : 354.8338390368
        }
      },
      "is_potentially_hazardous_asteroid" : false,
      "close_approach_data" : [ {
        "close_approach_date" : "2013-03-22",
        "epoch_date_close_approach" : 1363935600000,
        "relative_velocity" : {
          "kilometers_per_second" : "10.607154835",
          "kilometers_per_hour" : "38185.7574059366",
          "miles_per_hour" : "23727.1446503721"
        },
        "miss_distance" : {
          "astronomical" : "0.0162110124",
          "lunar" : "6.3060836792",
          "kilometers" : "2425133",
          "miles" : "1506907.75"
        },
        "orbiting_body" : "Earth"
      } ],
      "orbital_data" : {
        "orbit_id" : "17",
        "orbit_determination_date" : "2017-04-06 08:46:35",
        "orbit_uncertainty" : "7",
        "minimum_orbit_intersection" : ".00595802",
        "jupiter_tisserand_invariant" : "5.231",
        "epoch_osculation" : "2458000.5",
        "eccentricity" : ".339418992314359",
        "semi_major_axis" : "1.202614434856023",
        "inclination" : ".3750227922143082",
        "ascending_node_longitude" : "69.49219875218083",
        "orbital_period" : "481.7126434862642",
        "perihelion_distance" : ".7944242552344892",
        "perihelion_argument" : "192.3323497700037",
        "aphelion_distance" : "1.610804614477556",
        "perihelion_time" : "2457877.761793042109",
        "mean_anomaly" : "91.72637484675147",
        "mean_motion" : ".7473335086133467",
        "equinox" : "J2000"
      }
    }, {
      "links" : {
        "self" : "https://api.nasa.gov/neo/rest/v1/neo/3632243?api_key=t0TVs3DtDT2H8Oy2Zy8m2eVrNsAVKAexjcZXUckd"
      },
      "neo_reference_id" : "3632243",
      "name" : "(2013 EP89)",
      "nasa_jpl_url" : "http://ssd.jpl.nasa.gov/sbdb.cgi?sstr=3632243",
      "absolute_magnitude_h" : 22.6,
      "estimated_diameter" : {
        "kilometers" : {
          "estimated_diameter_min" : 0.0802703167,
          "estimated_diameter_max" : 0.1794898848
        },
        "meters" : {
          "estimated_diameter_min" : 80.2703167283,
          "estimated_diameter_max" : 179.4898847799
        },
        "miles" : {
          "estimated_diameter_min" : 0.049877647,
          "estimated_diameter_max" : 0.1115298092
        },
        "feet" : {
          "estimated_diameter_min" : 263.3540659348,
          "estimated_diameter_max" : 588.8775935812
        }
      },
      "is_potentially_hazardous_asteroid" : false,
      "close_approach_data" : [ {
        "close_approach_date" : "2013-03-22",
        "epoch_date_close_approach" : 1363935600000,
        "relative_velocity" : {
          "kilometers_per_second" : "12.3097288577",
          "kilometers_per_hour" : "44315.0238878834",
          "miles_per_hour" : "27535.6324818907"
        },
        "miss_distance" : {
          "astronomical" : "0.0603918332",
          "lunar" : "23.4924221039",
          "kilometers" : "9034490",
          "miles" : "5613771.5"
        },
        "orbiting_body" : "Earth"
      } ],
      "orbital_data" : {
        "orbit_id" : "16",
        "orbit_determination_date" : "2017-04-06 08:46:26",
        "orbit_uncertainty" : "5",
        "minimum_orbit_intersection" : ".0364584",
        "jupiter_tisserand_invariant" : "3.860",
        "epoch_osculation" : "2458000.5",
        "eccentricity" : ".479549462782746",
        "semi_major_axis" : "1.832436493339439",
        "inclination" : "11.52085914860993",
        "ascending_node_longitude" : "178.6961788922306",
        "orbital_period" : "906.0284294947298",
        "perihelion_distance" : ".9536925573750126",
        "perihelion_argument" : "44.86425896981495",
        "aphelion_distance" : "2.711180429303866",
        "perihelion_time" : "2458217.957042333143",
        "mean_anomaly" : "273.5959394965246",
        "mean_motion" : ".3973385252389522",
        "equinox" : "J2000"
      }
    } ]
  }
}